{
    "links": {
        "self": "http://www.neowsapp.com/rest/v1/neo/3448989?api_key=iIulBulltgU6a56xZRHN4H3l9WmuAYTsLGpBGhQ2"
    },
    "id": "3448989",
    "neo_reference_id": "3448989",
    "name": "(2009 DA45)",
    "designation": "2009 DA45",
    "nasa_jpl_url": "http://ssd.jpl.nasa.gov/sbdb.cgi?sstr=3448989",
    "absolute_magnitude_h": 22.4,
    "estimated_diameter": {
        "kilometers": {
            "estimated_diameter_min": 0.0880146521,
            "estimated_diameter_max": 0.1968067451
        },
        "meters": {
            "estimated_diameter_min": 88.0146520901,
            "estimated_diameter_max": 196.8067450894
        },
        "miles": {
            "estimated_diameter_min": 0.0546897524,
            "estimated_diameter_max": 0.122290004
        },
        "feet": {
            "estimated_diameter_min": 288.7619911632,
            "estimated_diameter_max": 645.6914415591
        }
    },
    "is_potentially_hazardous_asteroid": false,
    "close_approach_data": [
        {
            "close_approach_date": "2009-03-03",
            "close_approach_date_full": "2009-Mar-03 05:51",
            "epoch_date_close_approach": 1236059460000,
            "relative_velocity": {
                "kilometers_per_second": "1.6365038789",
                "kilometers_per_hour": "5891.4139639464",
                "miles_per_hour": "3660.6955266533"
            },
            "miss_distance": {
                "astronomical": "0.2841557711",
                "lunar": "110.5365949579",
                "kilometers": "42509098.104767557",
                "miles": "26413928.7321520066"
            },
            "orbiting_body": "Earth"
        }
    ],
    "orbital_data": {
        "orbit_id": "17",
        "orbit_determination_date": "2017-04-06 09:01:12",
        "first_observation_date": "2009-02-27",
        "last_observation_date": "2009-04-16",
        "data_arc_in_days": 48,
        "observations_used": 63,
        "orbit_uncertainty": "6",
        "minimum_orbit_intersection": ".291595",
        "jupiter_tisserand_invariant": "3.497",
        "epoch_osculation": "2459000.5",
        "eccentricity": ".4305822680627822",
        "semi_major_axis": "2.252893579664984",
        "inclination": "1.242693646686996",
        "ascending_node_longitude": "131.7070588990105",
        "orbital_period": "1235.120821093959",
        "perihelion_distance": "1.282837552428755",
        "perihelion_argument": "29.70724428260204",
        "aphelion_distance": "3.222949606901214",
        "perihelion_time": "2458598.070964452993",
        "mean_anomaly": "117.2957740835475",
        "mean_motion": ".2914694610047497",
        "equinox": "J2000",
        "orbit_class": {
            "orbit_class_type": "AMO",
            "orbit_class_description": "Near-Earth asteroid orbits similar to that of 1221 Amor",
            "orbit_class_range": "1.017 AU < q (perihelion) < 1.3 AU"
        }
    },
    "is_sentry_object": false
}